{
  "norad_id": 64021,
  "name": "STARLINK-34062",
  "history": [
    {
      "epoch": "2026-03-28T18:09:20.053440Z",
      "apogee_km": 483.3809077045107,
      "perigee_km": 482.56580779400883,
      "latitude_deg": -4.829045587329715e-05,
      "longitude_deg": 151.56263384928977,
      "height_km": 482.7206507171895,
      "semi_major_axis_km": 6861.1103577492595,
      "eccentricity": 5.94e-05,
      "inclination_deg": 43.0002,
      "raan_deg": 250.0686,
      "arg_perigee_deg": 274.0417,
      "mean_anomaly_deg": 86.0366,
      "mean_motion_rev_day": 15.27605294
    }
  ]
}