{"fetched_at":"2026-03-29T16:36:15Z","count":15609,"tles":[{"name":"STARLINK-34062","line1":"1 64021U 25101AD  26087.75648210  .00024665  00000+0  90213-3 0  9998","line2":"2 64021  43.0002 250.0686 0000594 274.0417  86.0366 15.27605294 49973","category":"Starlink"}]}